[{"OBJECT_NAME":"ONEWEB-0703","OBJECT_ID":"2023-068Q","EPOCH":"2025-08-19T18:24:26.803296","MEAN_MOTION":13.15546283,"ECCENTRICITY":0.0002595,"INCLINATION":87.9063,"RA_OF_ASC_NODE":319.3474,"ARG_OF_PERICENTER":76.111,"MEAN_ANOMALY":284.0309,"EPHEMERIS_TYPE":0,"CLASSIFICATION_TYPE":"U","NORAD_CAT_ID":56724,"ELEMENT_SET_NO":999,"REV_AT_EPOCH":10962,"BSTAR":0.00021037,"MEAN_MOTION_DOT":9.2e-7,"MEAN_MOTION_DDOT":0},{"OBJECT_NAME":"ONEWEB-0721","OBJECT_ID":"2023-068R","EPOCH":"2025-08-19T22:30:33.898176","MEAN_MOTION":13.22442669,"ECCENTRICITY":0.000201,"INCLINATION":86.6857,"RA_OF_ASC_NODE":181.5327,"ARG_OF_PERICENTER":79.1456,"MEAN_ANOMALY":280.9903,"EPHEMERIS_TYPE":0,"CLASSIFICATION_TYPE":"U","NORAD_CAT_ID":56725,"ELEMENT_SET_NO":999,"REV_AT_EPOCH":11812,"BSTAR":-0.0001349,"MEAN_MOTION_DOT":-4.2e-7,"MEAN_MOTION_DDOT":0},{"OBJECT_NAME":"ONEWEB-0015","OBJECT_ID":"2024-188A","EPOCH":"2025-08-20T07:38:55.743936","MEAN_MOTION":13.11418146,"ECCENTRICITY":0.0002258,"INCLINATION":87.8789,"RA_OF_ASC_NODE":81.0594,"ARG_OF_PERICENTER":95.3412,"MEAN_ANOMALY":264.7973,"EPHEMERIS_TYPE":0,"CLASSIFICATION_TYPE":"U","NORAD_CAT_ID":61594,"ELEMENT_SET_NO":999,"REV_AT_EPOCH":4310,"BSTAR":-0.0004607,"MEAN_MOTION_DOT":-1.51e-6,"MEAN_MOTION_DDOT":0},{"OBJECT_NAME":"ONEWEB-0687","OBJECT_ID":"2024-188B","EPOCH":"2025-08-20T07:05:52.101888","MEAN_MOTION":13.17648826,"ECCENTRICITY":0.0001842,"INCLINATION":87.902,"RA_OF_ASC_NODE":65.7841,"ARG_OF_PERICENTER":108.5405,"MEAN_ANOMALY":251.5927,"EPHEMERIS_TYPE":0,"CLASSIFICATION_TYPE":"U","NORAD_CAT_ID":61595,"ELEMENT_SET_NO":999,"REV_AT_EPOCH":4456,"BSTAR":0.00011066,"MEAN_MOTION_DOT":5.6e-7,"MEAN_MOTION_DDOT":0},{"OBJECT_NAME":"ONEWEB-0688","OBJECT_ID":"2024-188C","EPOCH":"2025-08-20T05:57:49.706208","MEAN_MOTION":13.1764882,"ECCENTRICITY":0.0002919,"INCLINATION":87.9019,"RA_OF_ASC_NODE":65.7935,"ARG_OF_PERICENTER":104.801,"MEAN_ANOMALY":255.3445,"EPHEMERIS_TYPE":0,"CLASSIFICATION_TYPE":"U","NORAD_CAT_ID":61596,"ELEMENT_SET_NO":999,"REV_AT_EPOCH":4433,"BSTAR":-3.7265e-5,"MEAN_MOTION_DOT":-2.0e-8,"MEAN_MOTION_DDOT":0},{"OBJECT_NAME":"ONEWEB-0689","OBJECT_ID":"2024-188D","EPOCH":"2025-08-19T14:09:04.717152","MEAN_MOTION":13.11413615,"ECCENTRICITY":0.0001517,"INCLINATION":87.8748,"RA_OF_ASC_NODE":81.1674,"ARG_OF_PERICENTER":95.0539,"MEAN_ANOMALY":265.0762,"EPHEMERIS_TYPE":0,"CLASSIFICATION_TYPE":"U","NORAD_CAT_ID":61597,"ELEMENT_SET_NO":999,"REV_AT_EPOCH":4492,"BSTAR":0.00036795,"MEAN_MOTION_DOT":1.43e-6,"MEAN_MOTION_DDOT":0},{"OBJECT_NAME":"ONEWEB-0690","OBJECT_ID":"2024-188E","EPOCH":"2025-08-20T06:52:31.499616","MEAN_MOTION":13.11413828,"ECCENTRICITY":0.0002088,"INCLINATION":87.8793,"RA_OF_ASC_NODE":80.9983,"ARG_OF_PERICENTER":65.6737,"MEAN_ANOMALY":294.4609,"EPHEMERIS_TYPE":0,"CLASSIFICATION_TYPE":"U","NORAD_CAT_ID":61598,"ELEMENT_SET_NO":999,"REV_AT_EPOCH":4330,"BSTAR":-0.00052066,"MEAN_MOTION_DOT":-1.72e-6,"MEAN_MOTION_DDOT":0},{"OBJECT_NAME":"ONEWEB-0691","OBJECT_ID":"2024-188F","EPOCH":"2025-08-20T06:45:13.313376","MEAN_MOTION":13.11414691,"ECCENTRICITY":0.0002086,"INCLINATION":87.871,"RA_OF_ASC_NODE":80.9745,"ARG_OF_PERICENTER":90.4203,"MEAN_ANOMALY":269.7164,"EPHEMERIS_TYPE":0,"CLASSIFICATION_TYPE":"U","NORAD_CAT_ID":61599,"ELEMENT_SET_NO":999,"REV_AT_EPOCH":4332,"BSTAR":0.00025012,"MEAN_MOTION_DOT":1.01e-6,"MEAN_MOTION_DDOT":0},{"OBJECT_NAME":"ONEWEB-0692","OBJECT_ID":"2024-188G","EPOCH":"2025-08-19T14:45:39.537216","MEAN_MOTION":13.1142002,"ECCENTRICITY":8.29e-5,"INCLINATION":87.8778,"RA_OF_ASC_NODE":81.202,"ARG_OF_PERICENTER":72.7371,"MEAN_ANOMALY":287.3848,"EPHEMERIS_TYPE":0,"CLASSIFICATION_TYPE":"U","NORAD_CAT_ID":61600,"ELEMENT_SET_NO":999,"REV_AT_EPOCH":4494,"BSTAR":-0.0013221,"MEAN_MOTION_DOT":-4.56e-6,"MEAN_MOTION_DDOT":0},{"OBJECT_NAME":"ONEWEB-0693","OBJECT_ID":"2024-188H","EPOCH":"2025-08-20T06:14:50.195616","MEAN_MOTION":13.17650323,"ECCENTRICITY":0.0002448,"INCLINATION":87.9022,"RA_OF_ASC_NODE":65.8091,"ARG_OF_PERICENTER":73.312,"MEAN_ANOMALY":286.828,"EPHEMERIS_TYPE":0,"CLASSIFICATION_TYPE":"U","NORAD_CAT_ID":61601,"ELEMENT_SET_NO":999,"REV_AT_EPOCH":4448,"BSTAR":4.1292e-5,"MEAN_MOTION_DOT":2.9e-7,"MEAN_MOTION_DDOT":0},{"OBJECT_NAME":"ONEWEB-0695","OBJECT_ID":"2024-188J","EPOCH":"2025-08-19T14:11:28.121280","MEAN_MOTION":13.114122,"ECCENTRICITY":0.0001213,"INCLINATION":87.878,"RA_OF_ASC_NODE":81.1928,"ARG_OF_PERICENTER":95.545,"MEAN_ANOMALY":264.5816,"EPHEMERIS_TYPE":0,"CLASSIFICATION_TYPE":"U","NORAD_CAT_ID":61602,"ELEMENT_SET_NO":999,"REV_AT_EPOCH":4493,"BSTAR":0.00036353,"MEAN_MOTION_DOT":1.42e-6,"MEAN_MOTION_DDOT":0},{"OBJECT_NAME":"ONEWEB-0697","OBJECT_ID":"2024-188K","EPOCH":"2025-08-19T14:57:53.588160","MEAN_MOTION":13.1141801,"ECCENTRICITY":9.5e-5,"INCLINATION":87.8774,"RA_OF_ASC_NODE":81.1787,"ARG_OF_PERICENTER":67.5604,"MEAN_ANOMALY":292.5625,"EPHEMERIS_TYPE":0,"CLASSIFICATION_TYPE":"U","NORAD_CAT_ID":61603,"ELEMENT_SET_NO":999,"REV_AT_EPOCH":4492,"BSTAR":-0.0012949,"MEAN_MOTION_DOT":-4.46e-6,"MEAN_MOTION_DDOT":0},{"OBJECT_NAME":"ONEWEB-0698","OBJECT_ID":"2024-188L","EPOCH":"2025-08-20T06:54:58.148064","MEAN_MOTION":13.11414147,"ECCENTRICITY":0.0001517,"INCLINATION":87.8774,"RA_OF_ASC_NODE":81.0592,"ARG_OF_PERICENTER":45.7216,"MEAN_ANOMALY":314.4037,"EPHEMERIS_TYPE":0,"CLASSIFICATION_TYPE":"U","NORAD_CAT_ID":61604,"ELEMENT_SET_NO":999,"REV_AT_EPOCH":4307,"BSTAR":-0.00050024,"MEAN_MOTION_DOT":-1.65e-6,"MEAN_MOTION_DDOT":0},{"OBJECT_NAME":"ONEWEB-0699","OBJECT_ID":"2024-188M","EPOCH":"2025-08-20T03:18:34.328448","MEAN_MOTION":13.10377504,"ECCENTRICITY":0.0001239,"INCLINATION":87.8775,"RA_OF_ASC_NODE":96.2976,"ARG_OF_PERICENTER":65.3965,"MEAN_ANOMALY":294.7291,"EPHEMERIS_TYPE":0,"CLASSIFICATION_TYPE":"U","NORAD_CAT_ID":61605,"ELEMENT_SET_NO":999,"REV_AT_EPOCH":4201,"BSTAR":0.0010948,"MEAN_MOTION_DOT":3.95e-6,"MEAN_MOTION_DDOT":0},{"OBJECT_NAME":"ONEWEB-0700","OBJECT_ID":"2024-188N","EPOCH":"2025-08-19T16:21:14.049504","MEAN_MOTION":13.10375802,"ECCENTRICITY":0.0001081,"INCLINATION":87.8747,"RA_OF_ASC_NODE":96.2796,"ARG_OF_PERICENTER":93.3633,"MEAN_ANOMALY":266.7618,"EPHEMERIS_TYPE":0,"CLASSIFICATION_TYPE":"U","NORAD_CAT_ID":61606,"ELEMENT_SET_NO":999,"REV_AT_EPOCH":4381,"BSTAR":0.0012234,"MEAN_MOTION_DOT":4.4e-6,"MEAN_MOTION_DDOT":0},{"OBJECT_NAME":"ONEWEB-0701","OBJECT_ID":"2024-188P","EPOCH":"2025-08-19T16:45:07.809984","MEAN_MOTION":13.10373024,"ECCENTRICITY":9.94e-5,"INCLINATION":87.8765,"RA_OF_ASC_NODE":96.3921,"ARG_OF_PERICENTER":59.0787,"MEAN_ANOMALY":301.0438,"EPHEMERIS_TYPE":0,"CLASSIFICATION_TYPE":"U","NORAD_CAT_ID":61607,"ELEMENT_SET_NO":999,"REV_AT_EPOCH":4382,"BSTAR":0.0017697,"MEAN_MOTION_DOT":6.3e-6,"MEAN_MOTION_DDOT":0},{"OBJECT_NAME":"ONEWEB-0702","OBJECT_ID":"2024-188Q","EPOCH":"2025-08-19T15:32:06.241344","MEAN_MOTION":13.11416939,"ECCENTRICITY":7.89e-5,"INCLINATION":87.8707,"RA_OF_ASC_NODE":81.1307,"ARG_OF_PERICENTER":85.1772,"MEAN_ANOMALY":274.9446,"EPHEMERIS_TYPE":0,"CLASSIFICATION_TYPE":"U","NORAD_CAT_ID":61608,"ELEMENT_SET_NO":999,"REV_AT_EPOCH":4496,"BSTAR":0.0015883,"MEAN_MOTION_DOT":5.76e-6,"MEAN_MOTION_DDOT":0}]
